C/2019 L2 (NEOWISE),e,152.2046,12.5539,18.7961,24.92628,0.0079199,0.93484694,8.9758,05/09.0/2022,2000,g 16.0,4.0
# From MPEC 2021-Y10
P/2019 LD2 (ATLAS),e,11.6203,179.5914,121.7190,5.241581,0.0821317,0.12783538,63.8389,05/09.0/2022,2000,g  8.5,4.0
# From MPEC 2022-J42
C/2019 L3 (ATLAS),h,01/09.6181/2022,48.3592,290.7897,171.6102,1.001682,3.554459,2000,4.5,4.0
# From MPC118095
C/2019 LB7 (Kleyna),e,164.2915,3.8897,336.4961,34.55913,0.0048513,0.92805833,5.5284,05/09.0/2022,2000,g 17.0,4.0
# From MPC118843
P/2019 M2 (ATLAS),e,12.2781,307.6081,332.5770,3.027856,0.1870688,0.64782552,196.7201,05/09.0/2022,2000,g 21.2,4.0
# From MPC118095
C/2019 M3 (ATLAS),h,01/01.7085/2019,99.4847,154.9097,87.8827,1.000047,2.419548,2000,12.2,4.0
# From MPEC 2022-C56
C/2019 N1 (ATLAS),e,82.4289,13.5743,193.4424,3259,0.0000053,0.99947676,0.0000,12/01.6981/2020,2000,g  7.5,4.0
# From MPEC 2022-A21
C/2019 NJ3 (Lemmon),h,10/22.6698/2020,99.4362,142.4577,246.8890,1.001858,4.362438,2000,9.0,4.0
# From MPEC 2022-HC2
A/2019 O2,e,93.2968,48.2802,129.6623,57.50482,0.0022602,0.83162001,359.2456,05/09.0/2022,2000,g  9.5,2.0
# From MPEC 2022-J42
C/2019 O3 (Palomar),h,03/09.0268/2021,89.8191,300.3943,60.1023,1.003733,8.820106,2000,3.5,4.0
# From MPEC 2021-P47
A/2019 O4,e,115.0961,354.9079,61.8796,33.10424,0.0051746,0.88985501,4.2359,05/09.0/2022,2000,g 15.5,2.0
# From MPEC 2021-N06
C/2019 Q1 (Lemmon),h,07/20.2619/2020,155.7252,42.4727,56.1458,1.000133,4.999828,2000,8.5,4.0
# From MPC117072
A/2019 Q2,e,159.0300,188.0094,176.3295,57.34819,0.0022695,0.97802844,0.0000,07/22.0461/2019,2000,g 18.0,2.0
# From MPC117072
C/2019 Q3 (PANSTARRS),h,08/21.5438/2018,65.5273,151.3244,152.7562,1.003144,7.260461,2000,8.5,4.0
# From MPC117072
P/2019 S2 (PANSTARRS),e,10.4698,93.1394,217.0700,4.740004,0.0955072,0.20635916,111.8922,05/09.0/2022,2000,g 13.5,4.0
# From MPEC 2022-CN4
P/2019 S3 (PANSTARRS),e,8.6948,150.1607,213.0112,3.415345,0.1561536,0.47120410,154.0208,05/09.0/2022,2000,g 18.3,4.0
# From MPEC 2021-S45
C/2019 S4 (Lemmon),e,92.0474,63.1536,71.3688,230.5670,0.0002815,0.98506940,0.0000,04/07.9012/2020,2000,g 11.0,4.0
# From MPEC 2022-HC2
A/2019 T1,e,120.8752,6.9457,91.0645,38.50278,0.0041254,0.88878598,1.9779,05/09.0/2022,2000,g 13.0,2.0
# From MPEC 2022-J42
C/2019 T2 (Lemmon),e,111.4883,155.6434,239.4130,2446,0.0000081,0.99891800,0.0000,04/22.3705/2021,2000,g  9.0,4.0
# From MPEC 2022-C56
C/2019 T3 (ATLAS),e,121.8543,139.5275,112.3802,3577,0.0000046,0.99833690,0.0000,03/03.7059/2021,2000,g  6.8,4.0
# From MPEC 2022-J42
C/2019 T4 (ATLAS),e,53.6283,199.9391,351.2018,1011,0.0000307,0.99580210,0.0000,06/09.1421/2022,2000,g  5.0,4.0
# From MPEC 2021-P47
P/2019 T5 (ATLAS),e,33.4559,247.6497,189.5627,7.995845,0.0435921,0.80923525,44.1018,05/09.0/2022,2000,g 15.0,4.0
# From MPEC 2021-P47
P/2019 T6 (PANSTARRS),e,18.6964,71.2602,328.9370,5.435683,0.0777719,0.62286623,70.9983,05/09.0/2022,2000,g 15.5,4.0
# From MPC118096
P/2019 U4 (PANSTARRS),e,11.6978,200.0024,180.9947,3.520424,0.1492147,0.47585783,143.7137,05/09.0/2022,2000,g 19.0,4.0
# From MPEC 2022-J42
C/2019 U5 (PANSTARRS),h,03/29.9810/2023,113.5206,2.6379,181.5239,1.001257,3.623716,2000,4.5,4.0
# From MPEC 2022-H04
C/2019 U6 (Lemmon),e,60.9947,235.7159,329.6341,369.7712,0.0001386,0.99752739,0.0000,06/18.6464/2020,2000,g 10.0,4.0
# From MPC119998
C/2019 V1 (Borisov),e,61.8751,83.1844,51.1723,1443,0.0000180,0.99785404,0.0000,07/16.3874/2020,2000,g 11.0,4.0
# From MPEC 2022-HC2
P/2019 V2 (Groeller),e,11.8075,189.1825,335.8975,7.505917,0.0479290,0.33127859,27.1911,05/09.0/2022,2000,g 10.0,4.0
# From MPC119998
P/2019 W1 (PANSTARRS),e,23.4695,35.3807,18.6872,4.549592,0.1015653,0.26672431,111.4090,05/09.0/2022,2000,g 12.9,4.0
# From MPEC 2021-P47
P/2019 X1 (Pruyne),e,10.2476,43.6740,36.7867,6.173120,0.0642609,0.30319443,65.7170,05/09.0/2022,2000,g 10.4,4.0
# From MPC119999
C/2019 Y1 (ATLAS),e,73.3186,31.5379,57.9436,85.79622,0.0012402,0.99031846,0.0000,03/15.6722/2020,2000,g 13.7,4.0
# From MPEC 2020-L06
C/2019 Y4 (ATLAS),h,05/31.0400/2020,45.7802,120.9569,177.2810,1.001405,0.251982,2000,11.6,6.0
# From MPEC 2020-L06
C/2019 Y4-A (ATLAS),h,05/31.0400/2020,45.7802,120.9569,177.2810,1.001405,0.251982,2000,11.6,6.0
# From MPEC 2020-L06
C/2019 Y4-B (ATLAS),e,45.4150,120.6525,177.4139,1441,0.0000180,0.99982413,0.0000,05/31.0181/2020,2000,g 12.8,6.0
# From MPEC 2020-L06
C/2019 Y4-C (ATLAS),h,05/30.9969/2020,45.5623,120.6830,177.3144,1.002126,0.253040,2000,12.7,6.0
# From MPEC 2020-L06
C/2019 Y4-D (ATLAS),e,45.6047,121.0618,177.4523,68.29859,0.0017462,0.99630432,0.0000,05/31.1174/2020,2000,g 12.5,6.0
# From MPEC 2021-P47
C/2019 Y5 (PANSTARRS),e,82.7904,51.7706,303.5247,801.5635,0.0000434,0.99386693,0.0000,08/18.2105/2019,2000,g 11.0,4.0
# From MPEC 2022-HC2
A/2020 A1,e,149.0399,119.2572,302.5828,25.51871,0.0076457,0.93464576,6.7918,05/09.0/2022,2000,g 18.0,2.0
# From MPEC 2020-L06
C/2020 A2 (Iwamoto),e,120.7040,286.3548,68.1587,1337,0.0000202,0.99927019,0.0000,01/08.5167/2020,2000,g 13.5,4.0
# From MPEC 2020-L06
C/2020 A3 (ATLAS),h,07/29.8355/2019,146.7669,120.3856,271.1580,1.026071,5.837399,2000,8.0,4.0
# From MPEC 2020-L06
C/2020 B3 (Rankin),e,20.7101,185.8460,324.9871,1056,0.0000287,0.99683527,0.0000,10/19.4390/2019,2000,g 13.0,4.0
# From MPEC 2022-H04
P/2020 B4 (Sheppard),e,11.6085,185.9795,342.2459,7.967262,0.0438269,0.19171044,7.3682,05/09.0/2022,2000,g 10.5,4.0
# From MPEC 2022-J42
C/2020 F2 (ATLAS),h,07/15.8364/2022,163.5841,250.2695,48.3594,1.004962,8.817102,2000,4.5,4.0
# From MPEC 2021-O56
C/2020 F3 (NEOWISE),e,129.0065,61.0335,37.3115,341.9584,0.0001559,0.99913674,0.0000,07/03.6107/2020,2000,g  7.5,5.2
# From MPEC 2022-CN4
C/2020 F5 (MASTER),e,52.2873,350.5287,310.8258,302.7047,0.0001871,0.98571716,0.0000,03/20.3098/2021,2000,g  6.5,3.2
# From MPEC 2020-L06
C/2020 F6 (PANSTARRS),e,174.5829,207.9026,344.6133,413.3635,0.0001173,0.99150923,0.0000,04/11.7657/2020,2000,g 14.5,2.8
# From MPEC 2022-HC2
C/2020 F7 (Lemmon),e,93.9517,321.8841,227.9618,652.2273,0.0000592,0.99182481,0.0000,11/13.9283/2021,2000,g  7.0,4.0
# From MPEC 2020-KB7
C/2020 F8 (SWAN),e,110.7259,259.9520,68.1700,265.6164,0.0002277,0.99838238,0.0000,05/27.5643/2020,2000,g 10.0,4.0
# From MPEC 2020-L06
P/2020 G1 (Pimentel),e,18.4908,240.1030,207.6268,3.609116,0.1437483,0.86003570,112.5037,05/09.0/2022,2000,g 17.0,4.0
# From MPEC 2020-L06
C/2020 H2 (Pruyne),e,124.9945,277.6532,26.7013,192.5686,0.0003688,0.99567411,0.0000,04/27.7249/2020,2000,g 18.0,4.0
# From MPEC 2020-HM1
C/2020 H3 (Wierzchos),p,06/05.7162/2020,62.5292,30.4456,2.300288,270.6227,2000,13.5,4.0
# From MPEC 2020-L06
C/2020 H4 (Leonard),e,84.5085,307.7176,117.5686,47.97872,0.0029657,0.98070267,0.0000,08/29.5726/2020,2000,g 15.0,3.2
# From MPEC 2022-J42
C/2020 H5 (Robinson),e,70.2417,210.6283,326.3867,3479,0.0000048,0.99731407,0.0000,12/11.6291/2020,2000,g  5.0,4.0
# From MPEC 2022-J42
C/2020 H6 (ATLAS),h,10/01.0265/2021,79.9738,213.7111,20.3415,1.000405,4.702839,2000,8.0,3.2
# From MPEC 2020-KB7
C/2020 H7 (Lemmon),e,135.9235,323.5194,82.6780,1405,0.0000187,0.99685380,0.0000,06/02.9510/2020,2000,g 11.0,4.0
# From MPEC 2021-N06
C/2020 H8 (PANSTARRS),e,99.6622,68.4115,128.9474,591.1756,0.0000686,0.99209051,0.0000,06/04.4840/2020,2000,g 10.5,4.0
# From MPEC 2022-ED3
A/2020 H9,e,137.8730,213.1581,312.8660,368.7446,0.0001392,0.99300957,0.0000,12/21.3475/2019,2000,g 18.0,2.0
# From MPEC 2022-J42
C/2020 J1 (SONEAR),h,04/18.6419/2021,142.3002,226.5880,341.7624,1.000654,3.355125,2000,8.5,3.2
# From MPEC 2022-J42
C/2020 K1 (PANSTARRS),e,89.6616,94.3571,213.9762,27702,0.0000002,0.99988905,0.0000,05/09.0672/2023,2000,g  5.5,4.0
# From MPEC 2021-N06
C/2020 K2 (PANSTARRS),h,08/06.0550/2020,91.0370,288.3640,67.3359,1.003581,8.879273,2000,10.8,4.0
# From MPEC 2020-KF9
C/2020 K3 (Leonard),p,06/01.0032/2020,129.0152,64.4924,1.583069,28.3546,2000,14.5,4.0
# From MPEC 2020-L06
C/2020 K4 (PANSTARRS),e,125.5745,264.1324,308.8248,23.91922,0.0084253,0.92665693,6.7088,05/09.0/2022,2000,g 16.5,4.0
# From MPEC 2021-R75
C/2020 K5 (PANSTARRS),h,06/05.5693/2021,67.1451,86.1666,249.5962,1.001482,1.535882,2000,11.0,4.0
# From MPEC 2022-J42
C/2020 K6 (Rankin),h,09/15.6786/2021,103.6469,291.5317,44.3183,1.003342,5.868554,2000,8.0,4.0
# From MPEC 2021-S45
C/2020 K7 (PANSTARRS),e,32.0394,286.0678,358.2514,100.8465,0.0009732,0.93663273,0.8985,05/09.0/2022,2000,g  8.0,4.0
# From MPEC 2021-P47
C/2020 K8 (Catalina-ATLAS),h,09/14.5840/2020,31.4279,181.5421,259.9940,1.000149,0.473505,2000,15.0,3.2
# From MPEC 2021-BE3
P/2020 K9 (Lemmon-PANSTARRS),e,23.2099,166.2393,196.9499,4.200159,0.1145000,0.32140682,51.6290,05/09.0/2022,2000,g 12.5,4.0
# From MPEC 2021-U31
P/2020 M1 (PANSTARRS),e,8.5829,142.7584,72.2621,5.309642,0.0805575,0.47756744,69.3669,05/09.0/2022,2000,g 14.5,4.0
# From MPEC 2022-H30
C/2020 M3 (ATLAS),e,23.4720,71.2141,328.4834,26.96424,0.0070392,0.95297581,3.9440,05/09.0/2022,2000,g 14.5,4.0
# From MPEC 2022-CN4
A/2020 M4,h,11/24.1688/2020,160.1277,348.6211,104.6554,1.000378,5.952632,2000,14.5,2.0
# From MPEC 2022-J42
C/2020 M5 (ATLAS),h,08/19.8741/2021,93.2250,352.0937,126.3337,1.000311,3.004192,2000,9.0,4.0
# From MPEC 2022-GA9
C/2020 N1 (PANSTARRS),h,03/12.2205/2021,29.7065,279.9662,186.7581,1.000453,1.320087,2000,12.5,4.0
# From MPEC 2021-P47
C/2020 N2 (ATLAS),e,161.0353,257.1088,331.2839,103.3278,0.0009384,0.98263402,0.0000,08/23.8116/2020,2000,g 16.0,3.2
# From MPEC 2020-SI8
P/2020 O1 (Lemmon-PANSTARRS),e,5.2259,175.9747,104.5294,2.644850,0.2291408,0.11926446,168.7697,05/09.0/2022,2000,g 15.5,4.0
# From MPEC 2022-J42
C/2020 O2 (Amaral),h,08/28.6495/2021,71.7523,256.7584,10.3143,1.002282,4.862368,2000,8.0,3.2
# From MPEC 2020-SI8
P/2020 O3 (PANSTARRS),e,8.4427,266.8232,81.5750,4.649679,0.0983037,0.10374355,45.6061,05/09.0/2022,2000,g 12.0,4.0
# From MPEC 2021-BE3
C/2020 P1 (NEOWISE),h,10/20.2270/2020,45.1049,53.5105,8.8874,1.000273,0.341599,2000,14.0,3.2
# From MPEC 2022-HC2
C/2020 P3 (ATLAS),h,04/20.9142/2021,61.8868,19.4711,82.2541,1.000039,6.812337,2000,6.0,4.0
# From MPEC 2022-J42
